ONEWEB-0210             
1 48787U 21045W   24161.62414657 -.00000023  00000+0 -94692-4 0  9995
2 48787  87.9043  45.9595 0002634  94.7563 265.3868 13.15547250147343
ONEWEB-0214             
1 48788U 21045X   24161.17731684 -.00000046  00000+0 -15547-3 0  9994
2 48788  87.9042  46.0374 0002246  96.6909 263.4477 13.15547556147258
ONEWEB-0221             
1 48789U 21045Y   24161.18365580  .00000061  00000+0  12723-3 0  9992
2 48789  87.9045  46.0537 0002204  80.4905 279.6475 13.15548873147344
ONEWEB-0213             
1 48790U 21045Z   24161.62890698 -.00000006  00000+0 -51234-4 0  9998
2 48790  87.9047  45.9789 0002294  82.0136 278.1255 13.15547738147460
ONEWEB-0212             
1 48791U 21045AA  24161.22564786  .00000111  00000+0  25996-3 0  9991
2 48791  87.9047  46.0420 0001855  78.1724 281.9615 13.15548351147404
ONEWEB-0227             
1 48792U 21045AB  24161.22485493  .00000081  00000+0  18150-3 0  9999
2 48792  87.9046  46.0579 0002047  79.2467 280.8893 13.15548116147358
ONEWEB-0226             
1 48793U 21045AC  24161.21851783  .00000220  00000+0  54910-3 0  9997
2 48793  87.9045  46.0658 0002363  88.9019 271.2382 13.15548309147325
ONEWEB-0224             
1 48794U 21045AD  24161.63841645 -.00000022  00000+0 -93510-4 0  9992
2 48794  87.9049  46.0028 0002634  58.6791 301.4597 13.15547210147305
